UNKNOWN                 
1 81615U 92021    22346.25423792  .00003048  00000+0  10726-2 0  9998
2 81615  65.8321  77.6316 0827651 279.5755  71.2801 13.24369942437148
UNKNOWN                 
1 81617U 73086    22348.54836603  .00000120  00000+0  98330-3 0  9999
2 81617 101.2894 195.5907 0042882 247.2876 112.3664 12.56387376415636
UNKNOWN                 
1 81624U          22345.42879880  .00003668  00000+0  86546-3 0  9997
2 81624  66.9901 270.2322 0085982  58.2486 302.6968 14.53100590479414
UNKNOWN                 
1 81626U          22348.41532300  .00312517  00000+0  21960-1 0  9997
2 81626  70.9895 150.4265 0007520 119.4288 240.7632 15.03377890468435
UNKNOWN                 
1 81640U          22347.09860824  .00000214  00000+0  24719-3 0  9996
2 81640  65.8233 209.0241 0989918 162.0411 201.8369 12.55644188904214
UNKNOWN                 
1 81652U 76077    22345.99634956  .00000558  00000+0  72491-3 0  9999
2 81652 102.1773 352.5400 0379658 285.7428  96.6124 13.41819233995891
UNKNOWN                 
1 81661U          22347.22390133  .00013025  00000+0  32227-2 0  9991
2 81661  98.4279 265.3362 0064565 313.5775  46.0069 14.50846023375785
UNKNOWN                 
1 81667U          22347.77007784  .00001723  00000+0  57147-3 0  9995
2 81667  74.0442 268.5802 0016669 123.9278 236.3464 14.38493936298717
UNKNOWN                 
1 81674U          22347.68177583  .00000658  00000+0  44915-3 0  9993
2 81674  66.8241 231.7304 0033437 293.1822  96.3337 14.05735673459585
UNKNOWN                 
1 81678U          22347.02820426  .00024009  00000+0  26402-2 0  9992
2 81678  65.8322  81.1786 0051458 269.0298 266.0326 14.86610633485301
UNKNOWN                 
1 81683U          22338.52499056  .00001290  00000+0  36331-3 0  9994
2 81683  81.2233   7.0425 0030778  43.0352 317.3237 14.45089846475761
UNKNOWN                 
1 81693U 73086    22347.71325716  .00000994  00000+0  76018-2 0  9996
2 81693 101.0815 156.0241 0375297 343.0402  15.8390 12.23572454833705
UNKNOWN                 
1 81696U          22348.53704799  .00018920  00000+0  16015-2 0  9997
2 81696  97.4476 251.5235 0191335 299.7865  58.4441 14.84889607350065
UNKNOWN                 
1 81732U          22348.21097208  .00011543  00000+0  11389-2 0  9996
2 81732  65.7333  27.4465 0221120  73.5307 288.9978 14.75728430481983
UNKNOWN                 
1 81745U          22348.46698675  .00001419  00000+0  55433-3 0  9992
2 81745  71.0036 243.8117 0004115 144.6232  30.2526 14.31321141472702
UNKNOWN                 
1 81749U          22345.96422112  .00000152  00000+0  63796-3 0  9993
2 81749  99.6768 154.5121 0367961  88.1609  60.0007 12.77052817940971
UNKNOWN                 
1 81766U          22343.36962057  .00004471  00000+0  20920-2 0  9990
2 81766  81.2046 359.6902 0013537 150.4973 209.6970 14.20082586403469
UNKNOWN                 
1 81775U          22347.40348111  .00002964  00000+0  13339-2 0  9999
2 81775  82.9276  36.1715 0019940 359.3471   0.7682 14.21924298468702
UNKNOWN                 
1 81779U          22348.45844769 -.00008538  00000+0 -33791+0 0  9995
2 81779  54.2940  21.4331 1774308 189.4694 166.7851  9.25913003378737
UNKNOWN                 
1 81792U          22348.54759936  .00000864  00000+0  36505-3 0  9993
2 81792  65.8278  21.5117 0907435  47.0464 320.3128 13.04928446432059
UNKNOWN                 
1 81794U          22347.21918278  .00049181  00000+0  46684-2 0  9997
2 81794  81.1832 163.9536 0006601 311.8534  48.2118 14.93270129486410
UNKNOWN                 
1 81798U          22347.54168477  .00019247  00000+0  36501-2 0  9992
2 81798  74.0140  28.4394 0041035   1.2351 358.8910 14.63668027427602
UNKNOWN                 
1 81812U          22347.89026667  .00005332  00000+0  37673-1 0  9991
2 81812 103.5894 129.5582 0346408 284.2444  72.0372 12.29757765405570
UNKNOWN                 
1 81813U          22340.84149414  .00002516  00000+0  72118-3 0  9992
2 81813  99.0608 201.0867 0017896 162.3162 197.8654 14.45833455 34651
UNKNOWN                 
1 81816U 77121    22346.88347429  .00000679  00000+0  58953-3 0  9998
2 81816  66.2376 136.6304 0186897 165.7010 194.9455 13.84573680 25669
UNKNOWN                 
1 81817U          22343.45855816  .00026102  00000+0  23747-2 0  9996
2 81817  65.7250   5.7680 0286854 223.0710 134.7635 14.68696965948264
UNKNOWN                 
1 81818U          22340.32332968  .00001990  00000+0  46732-3 0  9996
2 81818  65.7543 347.8975 0654786  62.0045 304.5686 13.72455095496107
UNKNOWN                 
1 81819U          22347.12404810  .00001140  00000+0  82440-2 0  9990
2 81819 102.2107  54.1864 0030778 359.6863   0.4179 12.45663031411485
UNKNOWN                 
1 81824U          22347.42164456  .00003105  00000+0  14918-2 0  9996
2 81824  65.8503  45.4246 0054534 220.4605 139.2420 14.19493073468333
UNKNOWN                 
1 81833U          22348.26737304  .00000250  00000+0  88691-3 0  9995
2 81833  90.2576 338.2883 0027538   9.5048 350.6585 12.93124503311030
UNKNOWN                 
1 81838U          22346.62838396  .00002304  00000+0  76240-3 0  9990
2 81838  67.7680 205.9150 0039121 338.6016  55.9980 14.39082126 30363
UNKNOWN                 
1 81844U          22347.72576033  .00004094  00000+0  19793-2 0  9993
2 81844  82.9223  86.0155 0081454 224.1471 135.3190 14.16628239467046
UNKNOWN                 
1 81845U          22347.06983444  .00001901  00000+0  26042-3 0  9999
2 81845  97.7560 201.3216 0101636 280.4376 238.0959 14.76131431487437
UNKNOWN                 
1 81864U          22348.58906793  .00001111  00000+0  48482-3 0  9995
2 81864  65.6740  91.4605 0781587 125.5079 242.1457 13.26618693405398
UNKNOWN                 
1 81865U 87062    22348.19581197  .00001292  00000+0  11443-2 0  9999
2 81865  82.8061 149.9665 0070047 223.2862 261.6744 13.83188919456981
UNKNOWN                 
1 81872U          22346.10588266  .00233661  00000+0  12128-1 0  9994
2 81872  61.9930 329.9018 1586338   9.9455 352.9327 12.21165708217020
UNKNOWN                 
1 81873U          22337.84362784  .00002575  00000+0  14315-2 0  9990
2 81873  99.0881  23.0956 0070241 323.7744  35.8681 14.10770929413192
UNKNOWN                 
1 81893U 70025    22347.51901555  .00000690  00000+0  79965-3 0  9995
2 81893  99.9588 264.5608 0015059 214.4125 145.6047 13.72976638453594
UNKNOWN                 
1 81899U          22347.66938398  .00000794  00000+0  20351-2 0  9997
2 81899 102.4311 239.2157 0187017 358.2553   1.7881 13.16653885434678
UNKNOWN                 
1 81902U          22340.21976306  .00018189  00000+0  22165-2 0  9999
2 81902  81.6234 265.7515 0260296  59.7611 302.9082 14.62039341 54681
UNKNOWN                 
1 81905U          22348.39593315  .00286763  00000+0  66328-2 0  9998
2 81905  61.6570 354.2523 0773056 217.2521 137.2452 14.09409329539431
UNKNOWN                 
1 81921U          22342.83663228  .00001895  00000+0  76369-3 0  9998
2 81921  65.7100  15.9851 0890513 221.8711 131.0823 13.08083846884301
UNKNOWN                 
1 81946U 87079    22347.76375884 -.00000120  00000+0 -22008-3 0  9994
2 81946  66.4218  97.3723 0670998 161.1109 353.4583 12.42028917857698
UNKNOWN                 
1 81947U          22340.64900641  .00002189  00000+0  27066-3 0  9993
2 81947  66.0825 316.3029 0443396  90.0514 275.1377 14.33914468 23875
UNKNOWN                 
1 81964U          22347.70317331  .00000222  00000+0  22445-3 0  9996
2 81964  66.5854  95.5599 0029759  90.2293 270.2196 13.94631028  3235
UNKNOWN                 
1 81969U          22348.50330012  .00003794  00000+0  41475-3 0  9992
2 81969  86.6684 260.8550 0011956 130.7904 229.4361 14.87553709276433
UNKNOWN                 
1 81995U          22348.45747538  .00002434  00000+0  59734-3 0  9997
2 81995  65.7557  59.6033 0578873 118.4066 247.6600 13.84457015451743
UNKNOWN                 
1 82039U          22345.09646324  .00011224  00000+0  23036-2 0  9997
2 82039  99.0666  36.9172 0041369 167.6484 192.5737 14.60310072397026
UNKNOWN                 
1 82043U          22345.44795929  .00001257  00000+0  40373-3 0  9996
2 82043  97.9494 220.1762 0259369 119.1709 243.5691 14.23424021417299
UNKNOWN                 
1 82044U          22344.01092373  .00001234  00000+0  13266-2 0  9997
2 82044  99.9209  57.9043 0066349 231.9119 127.6033 13.74804182939113
UNKNOWN                 
1 82051U          22346.92438912  .00003068  00000+0  13713-2 0  9994
2 82051  98.8119  52.7976 0116683 207.4511 152.0470 14.19820150416084
UNKNOWN                 
1 82073U          22348.27432923  .00001363  00000+0  42085-3 0  9995
2 82073  97.6864 163.6610 0239734 358.9003   1.1623 14.27538995418370
UNKNOWN                 
1 82139U          22348.56972284  .00001757  00000+0  10328-2 0  9990
2 82139  99.1076  30.2032 0093090 236.2458 122.9815 14.07268313325809
UNKNOWN                 
1 82162U          22347.31723352  .00002736  00000+0  47626-2 0  9997
2 82162 100.3740 206.9481 0062168 343.6121  16.2997 13.43849660356685
UNKNOWN                 
1 82168U          22341.74389407  .00045499  00000+0  44991-2 0  9998
2 82168  74.0053 152.4077 0008806 106.7945 253.4204 14.91636328410138
UNKNOWN                 
1 82180U          22346.56200530  .00004216  00000+0  93120-3 0  9997
2 82180  65.6642  39.2423 0454274  45.3429 318.3749 14.09722598   266
UNKNOWN                 
1 82187U          22348.57608999  .00029042  00000+0  40594-2 0  9998
2 82187  70.9397  97.5939 0056702  18.4806 341.8390 14.76386285482576
UNKNOWN                 
1 82189U          22348.44752735  .00000266  00000+0  10485-3 0  9998
2 82189  74.0353 252.4307 0016821 345.0560  15.0092 14.33835542475502
UNKNOWN                 
1 82199U          22347.23716331  .00000517  00000+0  45045-3 0  9996
2 82199  82.9669 336.1402 0035708 265.5047 107.9722 13.83882361963034
UNKNOWN                 
1 82205U          22347.00964319  .00005832  00000+0  13880-2 0  9996
2 82205  63.0000  91.1864 0592211 183.8279 175.8131 13.82299670960632
